0 COSMOS 2251 DEB
1 34449U 93036SS  13281.77123117  .00001959  00000-0  63794-3 0  2156
2 34449 074.0558 146.2543 0078062 245.1044 192.8330 14.37688374241939
0 COSMOS 2251 DEB
1 34449U 93036SS  13283.10232153  .00002606  00000-0  84534-3 0  2162
2 34449 074.0565 143.8082 0078098 242.3435 242.1282 14.37697534242125
0 COSMOS 2251 DEB
1 34449U 93036SS  13286.03037662  .00002576  00000-0  83563-3 0  2184
2 34449 074.0561 138.4241 0077947 236.2400 276.9429 14.37709399242541
0 COSMOS 2251 DEB
1 34449U 93036SS  13287.97340966  .00004435  00000-0  14314-2 0  2196
2 34449 074.0559 134.8510 0077923 232.1953 253.6256 14.37719797242823
0 COSMOS 2251 DEB
1 34449U 93036SS  13289.02292637  .00004041  00000-0  13051-2 0  2207
2 34449 074.0551 132.9209 0077873 230.0300 285.6961 14.37726659242975
0 COSMOS 2251 DEB
1 34449U 93036SS  13290.52761265  .00003579  00000-0  11569-2 0  2210
2 34449 074.0549 130.1538 0077782 226.8844 153.7041 14.37737655243188
0 COSMOS 2251 DEB
1 34449U 93036SS  13291.64939514  .00003580  00000-0  11571-2 0  2224
2 34449 074.0550 128.0908 0077736 224.5709 199.8760 14.37743287243346
0 COSMOS 2251 DEB
1 34449U 93036SS  13292.98895858  .00004056  00000-0  13095-2 0  2237
2 34449 074.0552 125.6272 0077667 221.7808 293.3105 14.37749910243541
0 COSMOS 2251 DEB
1 34449U 93036SS  13294.49522145  .00004591  00000-0  14805-2 0  2246
2 34449 074.0557 122.8572 0077611 218.6594 169.5904 14.37761300243755
0 COSMOS 2251 DEB
1 34449U 93036SS  13295.76273442  .00005147  00000-0  16586-2 0  2257
2 34449 074.0561 120.5261 0077553 216.0570 250.1500 14.37770462243940
